0 ASTRA 1L
1 31306U 07016A   13278.20556991  .00000113  00000-0  00000+0 0  5748
2 31306 000.0706 297.1252 0003339 300.2512 229.8868 01.00273111 23573
0 ASTRA 1L
1 31306U 07016A   13279.21963171  .00000113  00000-0  00000+0 0  5753
2 31306 000.0689 298.9176 0003400 304.8315 229.5747 01.00273439 23584
0 ASTRA 1L
1 31306U 07016A   13280.22750338  .00000112  00000-0  00000+0 0  5765
2 31306 000.0674 300.3562 0003292 302.9327 233.8662 01.00273737 23592
0 ASTRA 1L
1 31306U 07016A   13281.00000000  .00000109  00000-0  00000+0 0  5773
2 31306 000.0650 285.5530 0002566 323.5210 146.9140 01.00265651 23601
0 ASTRA 1L
1 31306U 07016A   13281.88121454  .00000108  00000-0  00000+0 0  5786
2 31306 000.0656 297.6738 0003341 301.3533 115.1053 01.00274117 23603
0 ASTRA 1L
1 31306U 07016A   13282.92033043  .00000105  00000-0  00000+0 0  5796
2 31306 000.0681 297.5894 0003163 297.3220 134.3341 01.00274366 23623
0 ASTRA 1L
1 31306U 07016A   13285.66520132  .00000097  00000-0  00000+0 0  5813
2 31306 000.0592 282.1437 0005205 311.2466 046.7023 01.00273413 23641
0 ASTRA 1L
1 31306U 07016A   13286.01589163  .00000096  00000-0  00000+0 0  5822
2 31306 000.0628 284.0368 0004993 305.2203 177.4242 01.00272595 23656
0 ASTRA 1L
1 31306U 07016A   13287.07909855  .00000095  00000-0  00000+0 0  5833
2 31306 000.0616 287.7161 0004861 301.6411 201.1311 01.00273065 23665
0 ASTRA 1L
1 31306U 07016A   13289.65640890  .00000097  00000-0  00000+0 0  5843
2 31306 000.0565 286.2623 0004867 303.1201 051.4935 01.00274157 23688
0 ASTRA 1L
1 31306U 07016A   13292.00000000  .00000100  00000-0  00000+0 0  5855
2 31306 000.0640 289.3790 0003733 327.2290 150.2010 01.00264568 23718
